{"type":"FeatureCollection","name":"MUNICIPIO_41_VICTORIA","crs":{"type":"name","properties":{"name":"urn:ogc:def:crs:OGC:1.3:CRS84"}},"features":[{"type":"Feature","id":41,"properties":{"id":39,"entidad":28,"municipio":41,"nombre":"VICTORIA","control":41},"geometry":{"type":"Polygon","coordinates":[[[-99.033408,23.570214],[-99.038838,23.566111],[-99.03997,23.565256],[-99.041057,23.564434],[-99.042666,23.563218],[-99.047474,23.559585],[-99.048259,23.558991],[-99.053372,23.555126],[-99.045519,23.542767],[-99.036372,23.542448],[-99.05358,23.527641],[-99.076778,23.527172],[-99.075497,23.516033],[-99.093495,23.514801],[-99.09352,23.465253],[-99.112227,23.464269],[-99.122422,23.462029],[-99.123599,23.46177],[-99.136801,23.458869],[-99.137589,23.448817],[-99.137612,23.448525],[-99.137975,23.443887],[-99.120505,23.452742],[-99.118717,23.429101],[-99.118876,23.428736],[-99.122147,23.421198],[-99.128235,23.40717],[-99.129643,23.403925],[-99.134524,23.392673],[-99.1541,23.398144],[-99.154579,23.398021],[-99.155057,23.397939],[-99.15685,23.397323],[-99.157744,23.39712],[-99.157879,23.397188],[-99.158015,23.397256],[-99.158248,23.397714],[-99.158718,23.398258],[-99.158777,23.398341],[-99.159185,23.399008],[-99.159772,23.399802],[-99.160597,23.40064],[-99.161065,23.401307],[-99.161417,23.401808],[-99.161592,23.4021],[-99.161882,23.402683],[-99.162292,23.403267],[-99.162585,23.403725],[-99.163173,23.404395],[-99.163584,23.404938],[-99.164053,23.405564],[-99.164523,23.406149],[-99.164935,23.406568],[-99.165407,23.407029],[-99.165817,23.407655],[-99.166465,23.408284],[-99.167292,23.408998],[-99.167589,23.409167],[-99.169182,23.410515],[-99.170374,23.411553],[-99.172044,23.412964],[-99.173416,23.413671],[-99.174788,23.414378],[-99.175802,23.415042],[-99.176577,23.415706],[-99.17771,23.41662],[-99.178485,23.417284],[-99.178961,23.417906],[-99.179438,23.41861],[-99.179735,23.419191],[-99.180092,23.419937],[-99.180209,23.420765],[-99.180028,23.421758],[-99.179727,23.422502],[-99.179188,23.423329],[-99.178709,23.423866],[-99.178288,23.425024],[-99.178047,23.425686],[-99.178523,23.426515],[-99.178939,23.427633],[-99.179535,23.42838],[-99.18031,23.429044],[-99.181205,23.429625],[-99.182278,23.43029],[-99.183234,23.430292],[-99.18437,23.430212],[-99.185266,23.43009],[-99.185148,23.429427],[-99.18509,23.428475],[-99.185271,23.42773],[-99.185153,23.427109],[-99.185035,23.426322],[-99.185515,23.425495],[-99.186471,23.425704],[-99.187128,23.425665],[-99.188501,23.42604],[-99.189456,23.426497],[-99.19041,23.426996],[-99.191366,23.427288],[-99.19238,23.427953],[-99.193215,23.428534],[-99.194169,23.429157],[-99.195303,23.42978],[-99.196138,23.43032],[-99.196675,23.430694],[-99.19757,23.431482],[-99.198405,23.431774],[-99.199062,23.431982],[-99.200376,23.432233],[-99.201572,23.43178],[-99.201872,23.431202],[-99.202411,23.43054],[-99.202951,23.429424],[-99.20355,23.428349],[-99.20421,23.427357],[-99.205584,23.42736],[-99.207374,23.428274],[-99.208686,23.429105],[-99.210237,23.430225],[-99.212027,23.431471],[-99.214116,23.432469],[-99.216086,23.433425],[-99.218235,23.434133],[-99.220026,23.434509],[-99.222238,23.434141],[-99.22439,23.433234],[-99.225146,23.433018],[-99.225825,23.432823],[-99.227857,23.432247],[-99.230128,23.431796],[-99.231741,23.431799],[-99.233473,23.43201],[-99.234847,23.432219],[-99.236161,23.432594],[-99.237294,23.433217],[-99.238189,23.434254],[-99.239741,23.434836],[-99.241055,23.434715],[-99.24249,23.43422],[-99.243865,23.433768],[-99.24536,23.433108],[-99.247216,23.430752],[-99.253785,23.466652],[-99.251317,23.477452],[-99.252328,23.480268],[-99.25292,23.483374],[-99.254226,23.48855],[-99.253381,23.493144],[-99.253968,23.499643],[-99.281181,23.488554],[-99.280725,23.493104],[-99.278729,23.513026],[-99.277579,23.524497],[-99.277357,23.526713],[-99.307673,23.521998],[-99.307724,23.549953],[-99.307733,23.554865],[-99.307735,23.555733],[-99.307757,23.568072],[-99.307783,23.5823],[-99.307793,23.587778],[-99.307803,23.593305],[-99.307824,23.604454],[-99.307825,23.605282],[-99.307826,23.605737],[-99.307836,23.611465],[-99.307848,23.617616],[-99.293347,23.617604],[-99.288134,23.617599],[-99.288173,23.618945],[-99.288241,23.621264],[-99.288666,23.635807],[-99.288808,23.640646],[-99.288848,23.642024],[-99.289419,23.661549],[-99.289511,23.664697],[-99.282437,23.664533],[-99.284066,23.669294],[-99.286559,23.676584],[-99.300651,23.67708],[-99.300952,23.677091],[-99.306525,23.677287],[-99.304008,23.708253],[-99.305355,23.713412],[-99.306602,23.718187],[-99.307316,23.720919],[-99.307369,23.722185],[-99.313325,23.743927],[-99.311083,23.747761],[-99.310883,23.748104],[-99.315019,23.747625],[-99.323696,23.757215],[-99.322566,23.759695],[-99.325017,23.765533],[-99.325179,23.765918],[-99.325534,23.766765],[-99.324112,23.770936],[-99.322126,23.771441],[-99.310266,23.774455],[-99.309185,23.77473],[-99.300678,23.776891],[-99.300084,23.777332],[-99.299818,23.777529],[-99.294576,23.78142],[-99.293267,23.784065],[-99.287088,23.784515],[-99.282404,23.789307],[-99.278115,23.789659],[-99.273826,23.790012],[-99.271455,23.796205],[-99.268284,23.795112],[-99.264993,23.793975],[-99.262115,23.793259],[-99.25873,23.793649],[-99.254377,23.794145],[-99.250451,23.794441],[-99.250388,23.795838],[-99.249227,23.821769],[-99.267652,23.833958],[-99.306861,23.859882],[-99.321519,23.869568],[-99.321892,23.869814],[-99.357246,23.893164],[-99.317173,23.898825],[-99.306618,23.912137],[-99.305811,23.913113],[-99.305018,23.913511],[-99.305434,23.913808],[-99.306395,23.913992],[-99.307287,23.914587],[-99.307821,23.91501],[-99.30738,23.915828],[-99.307006,23.916399],[-99.306862,23.917429],[-99.30624,23.918244],[-99.305684,23.918812],[-99.304707,23.919331],[-99.303614,23.919641],[-99.302343,23.919782],[-99.300948,23.920087],[-99.29931,23.920469],[-99.298092,23.920942],[-99.296628,23.921658],[-99.295367,23.92286],[-99.295128,23.923512],[-99.294525,23.924152],[-99.292721,23.925135],[-99.2915,23.925519],[-99.289899,23.925663],[-99.288607,23.926754],[-99.287867,23.927442],[-99.286273,23.928528],[-99.285048,23.929331],[-99.284359,23.930433],[-99.283607,23.931658],[-99.283108,23.932393],[-99.282789,23.93313],[-99.282707,23.93412],[-99.281848,23.934724],[-99.281226,23.935538],[-99.280414,23.936762],[-99.279843,23.937991],[-99.279273,23.939178],[-99.27883,23.940079],[-99.27814,23.941223],[-99.277098,23.941946],[-99.275981,23.943289],[-99.274702,23.943801],[-99.273408,23.944934],[-99.272602,23.94591],[-99.272265,23.947432],[-99.271343,23.948158],[-99.271011,23.949516],[-99.269707,23.951102],[-99.269373,23.952542],[-99.269367,23.952789],[-99.269345,23.953781],[-99.269679,23.955026],[-99.269956,23.956147],[-99.269209,23.957124],[-99.267863,23.957925],[-99.267009,23.958322],[-99.265489,23.958789],[-99.264571,23.959309],[-99.263295,23.959697],[-99.262086,23.959757],[-99.261057,23.959861],[-99.260087,23.96005],[-99.259182,23.959991],[-99.257813,23.959139],[-99.256621,23.958455],[-99.255912,23.95778],[-99.254534,23.9573],[-99.253212,23.957027],[-99.252549,23.956973],[-99.25157,23.957358],[-99.251148,23.957524],[-99.250216,23.958705],[-99.248869,23.959505],[-99.247888,23.960189],[-99.246968,23.960832],[-99.2461,23.961807],[-99.245794,23.962262],[-99.245413,23.962827],[-99.244507,23.965495],[-99.243468,23.966012],[-99.242182,23.966814],[-99.240835,23.967656],[-99.239367,23.968454],[-99.238248,23.969878],[-99.237603,23.971684],[-99.237209,23.973081],[-99.2361,23.974051],[-99.234996,23.974774],[-99.233533,23.975406],[-99.23232,23.975631],[-99.228246,23.976875],[-99.226907,23.977345],[-99.220474,23.981352],[-99.219663,23.982493],[-99.217787,23.982664],[-99.215917,23.982586],[-99.213822,23.981802],[-99.212341,23.980534],[-99.21037,23.979587],[-99.20864,23.978686],[-99.206854,23.977577],[-99.205419,23.976971],[-99.204694,23.976957],[-99.202805,23.977705],[-99.20128,23.978378],[-99.199939,23.97893],[-99.198121,23.979184],[-99.197148,23.979496],[-99.196892,23.979477],[-99.195094,23.97173],[-99.191075,23.97318],[-99.179381,23.958142],[-99.176551,23.954502],[-99.174895,23.952372],[-99.169759,23.94523],[-99.16706,23.941476],[-99.170115,23.939884],[-99.170932,23.941098],[-99.174416,23.939266],[-99.168618,23.92903],[-99.166301,23.930058],[-99.162798,23.919826],[-99.158435,23.920566],[-99.154367,23.913876],[-99.152513,23.914097],[-99.151401,23.91423],[-99.144705,23.911536],[-99.150935,23.908395],[-99.148398,23.903346],[-99.144233,23.90251],[-99.14155,23.901971],[-99.139707,23.898257],[-99.138973,23.898656],[-99.138366,23.898809],[-99.137761,23.89888],[-99.13679,23.899108],[-99.135747,23.899831],[-99.133825,23.897309],[-99.122595,23.882569],[-99.116984,23.875203],[-99.114141,23.871471],[-99.112823,23.869741],[-99.112305,23.86906],[-99.111521,23.86803],[-99.110467,23.866646],[-99.110592,23.86657],[-99.111135,23.866407],[-99.111068,23.863523],[-99.105362,23.863115],[-99.105257,23.862287],[-99.104313,23.854895],[-99.104177,23.853831],[-99.103295,23.846929],[-99.103278,23.846794],[-99.10139,23.844372],[-99.091615,23.831832],[-99.086633,23.825515],[-99.0784,23.815223],[-99.072661,23.823122],[-99.050415,23.800347],[-99.033864,23.783397],[-99.033826,23.783358],[-99.033207,23.782723],[-99.032653,23.782156],[-99.032064,23.781553],[-99.031381,23.780853],[-99.030405,23.779853],[-99.030133,23.779575],[-99.02153,23.770761],[-99.020489,23.771441],[-99.027671,23.779197],[-99.028152,23.779716],[-99.030592,23.782351],[-99.022108,23.788897],[-99.019899,23.7906],[-99.014318,23.78477],[-99.013731,23.784157],[-99.0136,23.784019],[-99.013061,23.783457],[-99.0082,23.778377],[-99.004598,23.780161],[-99.00114,23.776642],[-98.982015,23.757173],[-98.971619,23.762529],[-98.964672,23.766107],[-98.95923,23.759505],[-98.965894,23.755626],[-98.970669,23.752846],[-98.96498,23.748884],[-98.988305,23.736563],[-98.968482,23.715724],[-98.967437,23.714625],[-98.964438,23.711472],[-98.962722,23.709668],[-98.945609,23.691668],[-98.943818,23.689783],[-98.943644,23.688477],[-98.943319,23.686033],[-98.945091,23.669999],[-98.954678,23.65236],[-98.956776,23.651498],[-98.957534,23.649515],[-98.958469,23.647075],[-98.960984,23.646422],[-98.966196,23.644951],[-98.966904,23.644565],[-98.967564,23.644205],[-98.968244,23.643835],[-98.968535,23.643676],[-98.970519,23.642472],[-98.97098,23.642193],[-98.972673,23.641166],[-98.974005,23.640449],[-98.975295,23.639755],[-98.97741,23.638616],[-98.979027,23.638166],[-98.981594,23.639748],[-98.993566,23.638548],[-98.999765,23.628552],[-99.000351,23.631831],[-99.002277,23.636769],[-99.002995,23.636065],[-99.004192,23.635442],[-99.005509,23.634283],[-99.006587,23.633907],[-99.008145,23.634024],[-99.012871,23.628606],[-99.015331,23.63045],[-99.021017,23.626181],[-99.019754,23.624126],[-99.023825,23.621429],[-99.015358,23.611245],[-99.041345,23.593585],[-99.034248,23.586274],[-99.0299,23.581793],[-99.027948,23.577794],[-99.024436,23.5706],[-99.030251,23.564803],[-99.031637,23.56342],[-99.03169,23.563623],[-99.031743,23.563826],[-99.033408,23.570214]]]}}]}